00944   10.77  0.15 K1014 129.53965   56.60553   21.59745   42.54806  0.6600009  0.07160085   5.7436849  0 MPO 65988   255  16 1920-2003 0.55 M-v 38h Goffin     0000    (944) Hidalgo            20031206
05164   13.1   0.15 K1014 198.50948   67.82778   53.96656   19.28790  0.5006518  0.13963224   3.6796985  1 MPO 47604   164   7 1963-2000 0.65 M-v 38h MPC        0000   (5164) Mullo              20000510
05335   13.3   0.15 K1014 168.87694  191.22659  314.10329   61.63553  0.8657829  0.02418467  11.8424784  2 MPO 87240    47   2 1991-1992 0.65 M-v 38h MPC        4007   (5335) Damocles           19920822
06130   16.3   0.15 K1014 341.04315  189.78170  139.35149   23.76495  0.5425918  0.19233039   2.9723785  1 MPO 30234    31   4 1984-2002 0.48 M-v 38h MPC        4005   (6130) Hutton             20020320
07096   14.9   0.15 K1014 255.44567  254.88247  148.76908   11.23222  0.5050820  0.21360132   2.7716183  0 MPO158361   366  10 1984-2009 0.53 M-v 38h MPC        0005   (7096) Napier             20090524
07604   13.2   0.15 K1014 194.38572  266.19181  147.30882   20.45238  0.5743887  0.17956373   3.1116468  0 MPO150775   580  12 1984-2009 0.54 M-v 38h MPC        0005   (7604) Kridsadaporn       20090103
08373   14.0   0.15 K1014 353.26065   55.50871   88.88124   40.76808  0.5535915  0.16555368   3.2848093  0 MPO166028   535   9 1992-2009 0.49 M-v 38h MPC        0006   (8373) Stephengould       20091121
09767   16.4   0.15 K1014 305.32149  231.20440  331.35990   21.48934  0.5690812  0.15818450   3.3860505  1 MPO 57626    44   4 1980-2003 0.58 M-v 38h MPC        4006   (9767) Midsomer Norton    20031226
14222   13.9   0.15 K1014 339.54453   85.02229  229.20567   17.16515  0.5437849  0.18051516   3.1007036  0 MPO169605   353   8 1982-2009 0.48 M-v 38h MPC        0006  (14222) 1999 WS1           20090429
15504   12.1   0.15 K1014 143.19376  273.82932   23.39119   34.91660  0.7737124  0.03430231   9.3811006  1 MPO  8365   138   4 1996-2000 0.41 M-v 38h Williams   4000  (15504) 1999 RG33          20001222
18916   14.2   0.15 K1014  69.62531   98.04672  302.01356    7.41496  0.5857393  0.13064367   3.8466009  0 MPO148748   208   6 1954-2008 0.49 M-v 38h MPC        0007  (18916) 2000 OG44          20081125
20461   13.8   0.15 K1014  31.15896  102.80770  297.58684  160.43413  0.9007139  0.00842614  23.9175626  0 MPO135434   277   4 1998-2000 0.51 M-v 38h MPC        4000  (20461) Dioretsa           20001229
32511   12.4   0.15 K1014 276.50205  345.61261  285.87559    8.93519  0.4280256  0.08692388   5.0471162  0 MPO166033   136   8 1990-2009 0.58 M-v 38h MPC        0000  (32511) 2001 NX17          20091120
37117   13.2   0.15 K1014 180.21509  180.08176  248.60398   13.79390  0.5525312  0.05451657   6.8883788  1 MPO 24800   158   3 1984-2002 0.46 M-v 38h MPC        4000  (37117) Narcissus          20020208
37384   14.3   0.15 K1014 129.63283   81.69430   63.33362   20.53163  0.5676022  0.17648688   3.1477080  1 MPO128624   139   5 1979-2007 0.46 M-v 38h MPC        0005  (37384) 2001 WU1           20071030
65407   12.3   0.15 K1014   6.60413  357.77529   39.07412  119.22681  0.9541604  0.00249300  53.8668047  0 MPO 66046   529   4 2001-2004 0.45 M-v 38h MPC        4011  (65407) 2002 RP120         20040622
96177   16.0   0.15 K1014 343.93666   43.77604  129.44522   21.33969  0.5326321  0.15042240   3.5015556  0 MPO167527    84   5 1984-2009 0.57 M-v 38h MPC        0007  (96177) 1984 BC            20091218
A1058   15.2   0.15 K1014 339.28215   83.04081  349.49814   21.20798  0.5100656  0.17643390   3.1483381  0 MPO169796   184   5 1994-2009 0.52 M-v 38h MPC        0007 (101058) 1998 RN3           20091121
A1795   15.2   0.15 K1014 294.81212  153.17628  137.66295   18.06919  0.5353565  0.17150958   3.2083159  0 MPO155883   436   5 1999-2009 0.56 M-v 38h MPC        0006 (101795) 1999 HX2           20090319
A2528   13.7   0.15 K1014  70.30301  181.62827  268.22180   29.07910  0.5225551  0.21574196   2.7532541  0 MPO 78876   495   5 1994-2005 0.50 M-v 38h MPC        0005 (102528) 1999 US3           20050703
B5916   14.1   0.15 K1014 340.18448  351.92517  125.05824   20.25659  0.5539914  0.16876402   3.2430189  1 MPO 83731   155   5 1993-2005 0.58 M-v 38h MPC        0006 (115916) 2003 WB8           20050710
D6620   15.1   0.15 K1014 199.55132  137.55019   37.44941   31.03144  0.5161994  0.15953628   3.3668964  1 MPO104440    88   4 1994-2006 0.68 M-v 38h MPC        0007 (136620) 1994 JC            20060412
D7184   14.1   0.15 K1014   8.98427  248.30216   50.26375    8.01674  0.5571247  0.19342231   2.9611814  1 MPO160708   461   8 1999-2009 0.52 M-v 38h MPC        0005 (137184) 1999 JG63          20090810
E4870   14.4   0.15 K1014   7.43483  184.73696   32.93203   13.23647  0.5562534  0.16963609   3.2318947  1 MPO107447    94   5 1992-2006 0.43 M-v 38h MPC        0006 (144870) 2004 MA8           20061114
E4908   12.9   0.15 K1014  68.04720  348.72458   47.69222   79.13897  0.5671234  0.04244879   8.1387776  1 MPO114579   174   3 2004-2007 0.46 M-v 38h MPC        4000 (144908) 2004 YH32          20070115
E5485   13.8   0.15 K1014 160.18812  233.32949  141.43291   11.56709  0.5184927  0.09972095   4.6055177  1 MPO107635    87   4 1985-2006 0.42 M-v 38h MPC        0000 (145485) 2005 UN398         20060306
E5627   11.1   0.15 K1014  22.46943  344.81803   94.87260   18.69255  0.2767148  0.06211634   6.3144005  0 MPO143086    94   7 1983-2008 0.46 M-v 38h MPC        0000 (145627) 2006 RY102         20080210
F3542   15.3   0.15 K1014 155.36725  252.88948  228.28395   20.68420  0.5095020  0.18011704   3.1052710  1 MPO137904   155   5 1953-2008 0.51 M-v 38h MPC        0007 (153542) 2001 SS107         20080405
F4783   13.6   0.15 K1014  38.48687   73.06617  212.52312    3.27732  0.7589443  0.01824679  14.2893256  0 MPO117212    66   4 2002-2005 0.34 M-v 38h MPC        0000 (154783) 2004 PA44          20051027
J88R01O 17.3   0.15 K1014 319.64939  155.67872  181.24024   11.65006  0.5124082  0.22585581   2.6704341  2 MPO 66048    35   2 1988-2001 0.74 M-v 38h MPC        0005          1988 RO1           20011226
J92R01N 16.3   0.15 K1014  14.70712  210.74302  138.65961    6.05615  0.5134817  0.17267144   3.1939077  1 MPO166081   108   5 1992-2009 0.47 M-v 38h MPC        0007          1992 RN1           20091117
J92U00B 16.1   0.15 K1014  75.19736  290.89129   74.05457   15.93047  0.5775721  0.18200971   3.0837064  1 MPO147125    98   5 1992-2008 0.56 M-v 38h MPC        0005          1992 UB            20081019
J94L01C 16.6   0.15 K1014  90.69717  316.09408   15.63976   12.38055  0.5261090  0.20866265   2.8151804  1 MPO117890    94   3 1994-2007 0.53 M-v 38h MPC        0005          1994 LC1           20070314
J94W02Z 17.9   0.15 K1014 344.14337  325.51487   97.21457   18.00851  0.5427623  0.19141928   2.9818029  2 MPO 20679    40   3 1990-1999 0.62 M-v 38h MPC        0005          1994 WZ2           19991005
J95K01G 19.4   0.15 K1014  66.04606  154.61835   63.46796   31.16913  0.5225666  0.21351136   2.7723968  7 MPO164144    20   1    7 days 0.74 M-v 38h MPC        2005          1995 KG1           19950607
J95W03L 19.0   0.15 K1014 182.28767  139.91933  239.37465   18.91703  0.6271763  0.10411223   4.4750877  4 MPC 26760    24   1   64 days 0.60 M-v 38h Marsden    2000          1995 WL3           19960121
J96P00W 14.0   0.15 K1014   1.08610  181.78511  144.35438   29.94679  0.9906927  0.00022196 270.1625668    MPC 31142   249   2 1996-1997 0.52 M-v 38h Williams   0011          1996 PW            19971228
J96T09A 19.8   0.15 K1014 351.24046  337.56449   22.06702   12.23516  0.5076461  0.22079880   2.7110544  6 MPO 87333    34   1   38 days 0.48 M-v 38h MPC        2005          1996 TA9           19961119
J97M10D 16.0   0.15 K1014  32.01193   68.65761  281.87725   59.29365  0.9426639  0.00721813  26.5167149  1 MPC 31010   115   1  137 days 0.71 M-v 38h Williams   2006          1997 MD10          19971113
J98B07E 14.6   0.15 K1014  77.94147  302.79634   99.92065   14.94370  0.5108474  0.18216271   3.0819793  0 MPO157336   640   5 1998-2009 0.41 M-v 38h MPC        1006          1998 BE7           20090421
J98HA8U 17.0   0.15 K1014 194.47900  195.80477   63.20989    9.31358  0.5173580  0.21832863   2.7314647  1 MPO121749   213   3 1998-2007 0.53 M-v 38h MPC        0005          1998 HU108         20070715
J98HC1O 12.3   0.15 K1014 242.08754  325.26383  180.69438   11.97368  0.5843321  0.05166662   7.1394158  6 MPO  3894    16   1   34 days 0.62 M-v 38h Spahr      2000          1998 HO121         19980527
J98K56K 16.3   0.15 K1014  20.46085  127.80846  105.67202   25.74475  0.5060746  0.17340780   3.1848596  1 MPO158394   165   3 1998-2009 0.52 M-v 38h MPC        0007          1998 KK56          20090524
J98Q01J 16.5   0.15 K1014 108.60602    3.95430  311.65369   23.61170  0.8143151  0.02611220  11.2522763  3 MPC 33080    51   1   62 days 0.54 M-v 38h Williams   2000          1998 QJ1           19981018
J98U01Q 16.6   0.15 K1014 339.90728  183.18416  222.50464   64.31478  0.5159489  0.17136413   3.2101311  1 MPO 71974   111   2 1998-2004 0.67 M-v 38h MPC        0007          1998 UQ1           20041112
J98W24U 15.0   0.15 K1014  69.72245  303.84197  103.28973   42.53092  0.9069135  0.01675684  15.1242755  3 MPC 34031    62   1   87 days 0.70 M-v 38h Williams   2006          1998 WU24          19990220
J99L31E 12.4   0.15 K1014 171.63784   32.57552  292.06990  151.85475  0.4663588  0.04253020   8.1283885  2 MPO  2649   125   2 1999-2000 0.59 M-v 38h Marsden    0000          1999 LE31          20000629
J99N04Z 17.6   0.15 K1014  60.34241   19.39968  297.68112   19.67022  0.5007150  0.20544914   2.8444600  3 MPC 38069   142   1   97 days 0.43 M-v 38h Williams   2006          1999 NZ4           19991018
J99R41L 17.2   0.15 K1014 328.52332  308.92595   11.99936   17.99824  0.5509994  0.18114558   3.0935054  2 MPO  5592    47   2 1988-1999 0.47 M-v 3Eh Gnadig     0006          1999 RL41          19991105
